COSMOS 2433 (720)       
1 32275U 07052A   26106.91218675 -.00000009  00000+0  00000+0 0  9995
2 32275  65.6109 317.9971 0000764 235.8625 124.1786  2.13104287143750
COSMOS 2432 (719)       
1 32276U 07052B   26109.10878995 -.00000020  00000+0  00000+0 0  9990
2 32276  65.6253 318.0497 0009373 337.0732 212.2188  2.13103257143824
COSMOS 2434 (721)       
1 32393U 07065A   26111.27336344  .00000022  00000+0  00000+0 0  9993
2 32393  64.3157 193.8345 0001882  54.8418 301.0577  2.13101387142556
COSMOS 2436 (723)       
1 32395U 07065C   26111.19443079  .00000023  00000+0  00000+0 0  9991
2 32395  64.3244 193.9087 0017145   0.3378  67.5593  2.13100304142515
COSMOS 2456 (730)       
1 36111U 09070A   26109.88287384  .00000012  00000+0  00000+0 0  9995
2 36111  64.9788  72.9597 0006321 313.7906 213.1921  2.13103646127180
COSMOS 2457 (733)       
1 36112U 09070B   26111.84448851  .00000017  00000+0  00000+0 0  9998
2 36112  64.9656  72.7380 0001242 172.2673 187.5301  2.13100944127228
COSMOS 2460 (732)       
1 36402U 10007C   26111.81263451 -.00000024  00000+0  00000+0 0  9999
2 36402  65.4523 316.3750 0002260  61.3673 275.5279  2.13106133125525
COSMOS 2476 (744)       
1 37867U 11064A   26110.44681624  .00000017  00000+0  00000+0 0  9994
2 37867  65.2386  74.8197 0024420 242.1368 265.8270  2.13103726112534
COSMOS 2477 (745)       
1 37868U 11064B   26111.10422755  .00000019  00000+0  00000+0 0  9999
2 37868  65.2459  74.8764 0021412 243.7433 229.0769  2.13102874112543
COSMOS 2475 (743)       
1 37869U 11064C   26111.15967457  .00000019  00000+0  00000+0 0  9998
2 37869  65.2527  74.8954 0027457 255.4247 215.2944  2.13101734112556
COSMOS 2485 (747)       
1 39155U 13019A   26110.19107839  .00000018  00000+0  00000+0 0  9992
2 39155  65.3888  75.5498 0024683 237.6631 122.0729  2.13103157101044
COSMOS 2492 (754)       
1 39620U 14012A   26111.55782381 -.00000024  00000+0  00000+0 0  9993
2 39620  65.3303 315.8614 0011743 330.3825  29.5784  2.13103169 94037
COSMOS 2500 (755)       
1 40001U 14032A   26108.91279337 -.00000018  00000+0  00000+0 0  9991
2 40001  65.2664 315.7038 0005433 184.4859 175.5451  2.13106055 92199
COSMOS 2501 (702K)      
1 40315U 14075A   26110.58183731  .00000031  00000+0  00000+0 0  9998
2 40315  63.6142 192.3654 0021746 209.4107 150.5283  2.13101394 88622
COSMOS 2514 (751)       
1 41330U 16008A   26111.03548471 -.00000023  00000+0  00000+0 0  9993
2 41330  65.0552 314.9683 0009372 198.8651 161.1270  2.13102637 79402
COSMOS 2522 (752)       
1 42939U 17055A   26111.34263828  .00000020  00000+0  00000+0 0  9992
2 42939  64.0765 193.8181 0009051 235.0243 124.9487  2.13101801 66769
COSMOS 2527 (756)       
1 43508U 18053A   26108.95764561  .00000018  00000+0  00000+0 0  9994
2 43508  65.5464  75.8819 0008668 248.1452 111.7369  2.13101985 61010
COSMOS 2529 (757)       
1 43687U 18086A   26111.40084970  .00000020  00000+0  00000+0 0  9994
2 43687  64.2928 194.5107 0010065 254.9383 105.0073  2.13102018 58078
COSMOS 2534 (758)       
1 44299U 19030A   26111.82333705  .00000013  00000+0  00000+0 0  9995
2 44299  64.3660 194.5135 0011640 276.8796 181.7024  2.13102303 53725
COSMOS 2544 (759)       
1 44850U 19088A   26111.71790101  .00000023  00000+0  00000+0 0  9997
2 44850  65.5356  75.6145 0015141 261.9065  97.8999  2.13101766 49519
COSMOS 2545 (760)       
1 45358U 20018A   26110.97478258 -.00000024  00000+0  00000+0 0  9991
2 45358  64.3895 314.4305 0007129 240.1720 119.7829  2.13102481 47445
COSMOS 2547 (705K)      
1 46805U 20075A   26111.16379718  .00000023  00000+0  00000+0 0  9993
2 46805  64.5971 194.3774 0008030 235.1640 124.8181  2.13100400 42691
COSMOS 2557 (706K)      
1 52984U 22075A   26111.79777340 -.00000027  00000+0  00000+0 0  9997
2 52984  64.3313 316.4725 0010338 281.8992  78.0119  2.13101780 29518
COSMOS 2559 (707K)      
1 54031U 22130A   26111.61726750 -.00000027  00000+0  00000+0 0  9994
2 54031  64.3045 316.5636 0011201 176.4447 183.5907  2.13101377 27484
COSMOS 2564 (761)       
1 54377U 22161A   26110.52218257  .00000032  00000+0  00000+0 0  9993
2 54377  64.7390 194.6249 0010891 218.9685 141.0114  2.13101854 26409
COSMOS 2569 (703K)      
1 57517U 23114A   26111.00394509  .00000018  00000+0  00000+0 0  9994
2 57517  65.2715  74.5476 0012536 295.0574  64.7888  2.13103708 21048
COSMOS 2584 (704K)      
1 63130U 25042A   26109.01381142  .00000015  00000+0  00000+0 0  9998
2 63130  65.0525  74.8125 0006945 238.1835 121.7230  2.13103551  8789
COSMOS 2596 (708K)      
1 65590U 25206B   26109.10868363 -.00000021  00000+0  00000+0 0  9995
2 65590  64.6684 317.0427 0011767 316.9770 232.7343  2.13100286  4652
